NORAD_CAT_ID,OBJECT_NAME,OBJECT_TYPE,EPOCH,MEAN_MOTION,ECCENTRICITY,INCLINATION,RA_OF_ASC_NODE,ARG_OF_PERICENTER,MEAN_ANOMALY,BSTAR,MEAN_MOTION_DOT,MEAN_MOTION_DDOT,TLE_LINE0,TLE_LINE1,TLE_LINE2,SEMIMAJOR_AXIS,PERIOD,APOGEE,PERIGEE,DECAYED
55433.0,STARLINK-5570,PAYLOAD,2023-04-16 11:50:12,14.98329913,0.0003105,69.9993,252.4411,270.2443,89.836,-3.0287e-05,-4.54e-06,0.0,0 STARLINK-5570,1 55433U 23014AU  23106.49320384 -.00000454  00000-0 -30287-4 0  9994,2 55433  69.9993 252.4411 0003105 270.2443  89.8360 14.98329913 11620,6950.193,96.107,574.216,569.9,0.0
55433.0,STARLINK-5570,PAYLOAD,2023-04-16 13:26:20,14.9832933,0.0003096,69.9993,252.2728,270.1913,89.8891,-2.3519e-05,-3.74e-06,0.0,0 STARLINK-5570,1 55433U 23014AU  23106.55996396 -.00000374  00000-0 -23519-4 0  9994,2 55433  69.9993 252.2728 0003096 270.1913  89.8891 14.98329330 12576,6950.195,96.107,574.212,569.908,0.0
55433.0,STARLINK-5570,PAYLOAD,2023-04-16 19:50:52,14.98334499,0.0003154,70.0,251.6004,270.5933,89.4865,6.8123e-06,-1.2e-07,0.0,0 STARLINK-5570,1 55433U 23014AU  23106.82699913 -.00000012  00000-0  68123-5 0  9998,2 55433  70.0000 251.6004 0003154 270.5933  89.4865 14.98334499 12613,6950.179,96.107,574.236,569.852,0.0
55433.0,STARLINK-5570,PAYLOAD,2023-04-17 11:52:13,14.98326344,0.0003053,70.0003,249.9176,273.2198,86.8612,-4.0701e-05,-5.79e-06,0.0,0 STARLINK-5570,1 55433U 23014AU  23107.49460528 -.00000579  00000-0 -40701-4 0  9990,2 55433  70.0003 249.9176 0003053 273.2198  86.8612 14.98326344 11774,6950.204,96.107,574.191,569.947,0.0
55433.0,STARLINK-5570,PAYLOAD,2023-04-17 13:28:21,14.98326136,0.0003053,70.0004,249.7493,273.267,86.814,-4.2939e-05,-6.05e-06,0.0,0 STARLINK-5570,1 55433U 23014AU  23107.56136561 -.00000605  00000-0 -42939-4 0  9990,2 55433  70.0004 249.7493 0003053 273.2670  86.8140 14.98326136 12721,6950.205,96.107,574.192,569.948,0.0
55433.0,STARLINK-5570,PAYLOAD,2023-04-17 19:52:54,14.9832613,0.0002719,70.0002,249.0761,270.8062,89.2786,2.5929e-05,2.16e-06,0.0,0 STARLINK-5570,1 55433U 23014AU  23107.82840447  .00000216  00000-0  25929-4 0  9990,2 55433  70.0002 249.0761 0002719 270.8062  89.2786 14.98326130 12767,6950.205,96.107,573.96,570.18,0.0
55433.0,STARLINK-5570,PAYLOAD,2023-04-18 10:18:06,14.98331334,0.0002932,70.0002,247.5609,270.2974,89.7849,1.2886e-05,6.1e-07,0.0,0 STARLINK-5570,1 55433U 23014AU  23108.42924108  .00000061  00000-0  12886-4 0  9990,2 55433  70.0002 247.5609 0002932 270.2974  89.7849 14.98331334 12851,6950.189,96.107,574.092,570.016,0.0
55433.0,STARLINK-5570,PAYLOAD,2023-04-18 13:30:22,14.98331365,0.0002935,70.0002,247.2243,270.2852,89.797,1.3479e-05,6.8e-07,0.0,0 STARLINK-5570,1 55433U 23014AU  23108.56276093  .00000068  00000-0  13479-4 0  9994,2 55433  70.0002 247.2243 0002935 270.2852  89.7970 14.98331365 11937,6950.189,96.107,574.094,570.014,0.0
55433.0,STARLINK-5570,PAYLOAD,2023-04-18 18:18:46,14.98332628,0.000292,70.0003,246.7194,270.3168,89.7657,2.7706e-05,2.38e-06,0.0,0 STARLINK-5570,1 55433U 23014AU  23108.76303952  .00000238  00000-0  27706-4 0  9998,2 55433  70.0003 246.7194 0002920 270.3168  89.7657 14.98332628 12905,6950.185,96.107,574.079,570.02,0.0
55433.0,STARLINK-5570,PAYLOAD,2023-04-19 08:43:59,14.98327698,0.0002908,70.0004,245.2046,271.2108,88.8718,4.3721e-05,4.29e-06,0.0,0 STARLINK-5570,1 55433U 23014AU  23109.36388181  .00000429  00000-0  43721-4 0  9999,2 55433  70.0004 245.2046 0002908 271.2108  88.8718 14.98327698 12994,6950.2,96.107,574.086,570.044,0.0
55433.0,STARLINK-5570,PAYLOAD,2023-04-19 16:44:39,14.98330703,0.0002904,70.0002,244.3628,271.3602,88.7224,5.5843e-05,5.73e-06,0.0,0 STARLINK-5570,1 55433U 23014AU  23109.69767963  .00000573  00000-0  55843-4 0  9992,2 55433  70.0002 244.3628 0002904 271.3602  88.7224 14.98330703 13043,6950.191,96.107,574.074,570.037,0.0
55433.0,STARLINK-5570,PAYLOAD,2023-04-19 18:20:47,14.98331874,0.0002894,70.0002,244.1946,271.3193,88.7634,6.7597e-05,7.14e-06,0.0,0 STARLINK-5570,1 55433U 23014AU  23109.76443846  .00000714  00000-0  67597-4 0  9997,2 55433  70.0002 244.1946 0002894 271.3193  88.7634 14.98331874 13053,6950.187,96.107,574.063,570.041,0.0
55433.0,STARLINK-5570,PAYLOAD,2023-04-20 15:10:32,14.98327801,0.0002755,70.0005,242.0066,267.5711,92.5133,-4.6008e-05,-6.42e-06,0.0,0 STARLINK-5570,1 55433U 23014AU  23110.63232485 -.00000642  00000-0 -46008-4 0  9996,2 55433  70.0005 242.0066 0002755 267.5711  92.5133 14.98327801 12247,6950.2,96.107,573.979,570.15,0.0
55433.0,STARLINK-5570,PAYLOAD,2023-04-20 18:22:49,14.98325025,0.0002857,70.0005,241.6701,266.9187,93.1646,-7.0055e-05,-9.29e-06,0.0,0 STARLINK-5570,1 55433U 23014AU  23110.76584752 -.00000929  00000-0 -70055-4 0  9994,2 55433  70.0005 241.6701 0002857 266.9187  93.1646 14.98325025 13200,6950.208,96.107,574.059,570.088,0.0
55433.0,STARLINK-5570,PAYLOAD,2023-04-21 15:12:33,14.9833464,0.0002981,70.0002,239.4823,265.5856,94.4962,2.3687e-05,1.9e-06,0.0,0 STARLINK-5570,1 55433U 23014AU  23111.63371825  .00000190  00000-0  23687-4 0  9993,2 55433  70.0002 239.4823 0002981 265.5856  94.4962 14.98334640 13335,6950.179,96.107,574.115,569.972,0.0
55433.0,STARLINK-5570,PAYLOAD,2023-04-21 18:24:49,14.98334459,0.000304,70.0001,239.1456,266.174,93.9071,1.8636e-05,1.29e-06,0.0,0 STARLINK-5570,1 55433U 23014AU  23111.76723832  .00000129  00000-0  18636-4 0  9996,2 55433  70.0001 239.1456 0003040 266.1740  93.9071 14.98334459 13354,6950.179,96.107,574.157,569.931,0.0
55433.0,STARLINK-5570,PAYLOAD,2023-04-22 12:02:18,14.98328508,0.0003152,70.0003,237.2939,266.9914,93.0885,3.0139e-05,2.67e-06,0.0,0 STARLINK-5570,1 55433U 23014AU  23112.50160173  .00000267  00000-0  30139-4 0  9997,2 55433  70.0003 237.2939 0003152 266.9914  93.0885 14.98328508 12526,6950.198,96.107,574.253,569.872,0.0
55433.0,STARLINK-5570,PAYLOAD,2023-04-22 18:26:50,14.983338,0.0003104,70.0002,236.6205,266.8201,93.2603,8.6842e-05,9.43e-06,0.0,0 STARLINK-5570,1 55433U 23014AU  23112.76863644  .00000943  00000-0  86842-4 0  9991,2 55433  70.0002 236.6205 0003104 266.8201  93.2603 14.98333800 12564,6950.181,96.107,574.203,569.889,0.0
55433.0,STARLINK-5570,PAYLOAD,2023-04-23 10:28:10,14.98370348,0.0002806,70.0006,234.9372,262.7603,97.3237,-0.00068128,-8.221e-05,0.0,0 STARLINK-5570,1 55433U 23014AU  23113.43623753 -.00008221  00000-0 -68128-3 0  9996,2 55433  70.0006 234.9372 0002806 262.7603  97.3237 14.98370348 13605,6950.068,96.104,573.883,569.983,0.0
55433.0,STARLINK-5570,PAYLOAD,2023-04-23 12:04:18,14.98369249,0.0002827,70.0006,234.7689,263.1408,96.9429,-0.00067103,-8.098e-05,0.0,0 STARLINK-5570,1 55433U 23014AU  23113.50299643 -.00008098  00000-0 -67103-3 0  9995,2 55433  70.0006 234.7689 0002827 263.1408  96.9429 14.98369249 12677,6950.072,96.104,573.901,569.972,0.0
55433.0,STARLINK-5570,PAYLOAD,2023-04-24 07:17:55,14.9834009,0.0002979,70.0001,232.7473,269.5446,90.5372,8.8609e-05,9.65e-06,0.0,0 STARLINK-5570,1 55433U 23014AU  23114.30410919  .00000965  00000-0  88609-4 0  9993,2 55433  70.0001 232.7473 0002979 269.5446  90.5372 14.98340090 13739,6950.162,96.106,574.097,569.956,0.0
55433.0,STARLINK-5570,PAYLOAD,2023-04-25 10:32:15,14.98301215,0.0003164,69.9995,229.8887,266.2311,93.8487,-0.00037401,-4.549e-05,0.0,0 STARLINK-5570,1 55433U 23014AU  23115.43906535 -.00004549  00000-0 -37401-3 0  9999,2 55433  69.9995 229.8887 0003164 266.2311  93.8487 14.98301215 12969,6950.282,96.109,574.346,569.948,0.0
55433.0,STARLINK-5570,PAYLOAD,2023-04-26 12:10:23,14.98330014,0.0003062,70.0009,227.1926,266.5313,93.5496,0.00010214,1.126e-05,0.0,0 STARLINK-5570,1 55433U 23014AU  23116.50721092  .00001126  00000-0  10214-3 0  9990,2 55433  70.0009 227.1926 0003062 266.5313  93.5496 14.98330014 14064,6950.193,96.107,574.186,569.93,0.0
55433.0,STARLINK-5570,PAYLOAD,2023-04-26 18:34:55,14.98333162,0.0002667,70.0001,226.5211,269.2984,90.787,0.00018588,2.126e-05,0.0,0 STARLINK-5570,1 55433U 23014AU  23116.77424769  .00002126  00000-0  18588-3 0  9993,2 55433  70.0001 226.5211 0002667 269.2984  90.7870 14.98333162 14107,6950.183,96.107,573.902,570.194,0.0
55433.0,STARLINK-5570,PAYLOAD,2023-04-27 12:12:23,14.98316762,0.0002801,70.0008,224.6699,271.7884,88.2955,0.00062212,7.335e-05,0.0,0 STARLINK-5570,1 55433U 23014AU  23117.50860496  .00007335  00000-0  62212-3 0  9996,2 55433  70.0008 224.6699 0002801 271.7884  88.2955 14.98316762 13270,6950.234,96.108,574.046,570.152,0.0
55433.0,STARLINK-5570,PAYLOAD,2023-04-28 05:49:51,14.98362618,0.0002932,70.0011,222.8189,274.5081,85.5743,-0.00014406,-1.813e-05,0.0,0 STARLINK-5570,1 55433U 23014AU  23118.24295988 -.00001813  00000-0 -14406-3 0  9995,2 55433  70.0011 222.8189 0002932 274.5081  85.5743 14.98362618 13381,6950.092,96.105,573.995,569.919,0.0
55433.0,STARLINK-5570,PAYLOAD,2023-04-28 13:50:31,14.98357075,0.0002592,70.0004,221.9757,264.3024,95.7839,-0.00017639,-2.198e-05,0.0,0 STARLINK-5570,1 55433U 23014AU  23118.57675736 -.00002198  00000-0 -17639-3 0  9992,2 55433  70.0004 221.9757 0002592 264.3024  95.7839 14.98357075 14370,6950.109,96.105,573.776,570.173,0.0
55433.0,STARLINK-5570,PAYLOAD,2023-04-29 10:40:16,14.98344047,0.0002992,69.9996,219.7879,273.2913,86.7904,-0.0002558,-3.145e-05,0.0,0 STARLINK-5570,1 55433U 23014AU  23119.44464013 -.00003145  00000-0 -25580-3 0  9990,2 55433  69.9996 219.7879 0002992 273.2913  86.7904 14.98344047 13565,6950.149,96.106,574.094,569.935,0.0
55433.0,STARLINK-5570,PAYLOAD,2023-04-29 13:52:33,14.98336891,0.0002859,69.9994,219.451,268.465,91.6182,-0.00012175,-1.546e-05,0.0,0 STARLINK-5570,1 55433U 23014AU  23119.57816029 -.00001546  00000-0 -12175-3 0  9991,2 55433  69.9994 219.4510 0002859 268.4650  91.6182 14.98336891 14526,6950.172,96.107,574.024,570.05,0.0
55433.0,STARLINK-5570,PAYLOAD,2023-04-30 12:18:24,14.98347704,0.0003155,69.9994,217.0934,284.3928,75.6881,8.3202e-05,9e-06,0.0,0 STARLINK-5570,1 55433U 23014AU  23120.51277876  .00000900  00000-0  83202-4 0  9999,2 55433  69.9994 217.0934 0003155 284.3928  75.6881 14.98347704 13729,6950.138,96.106,574.196,569.81,0.0
